{
  "norad_id": 48592,
  "name": "STARLINK-2249",
  "history": [
    {
      "epoch": "2026-04-10T12:00:02.000160Z",
      "apogee_km": 449.39514440248604,
      "perigee_km": 447.02230662829606,
      "latitude_deg": 14.454708018606489,
      "longitude_deg": -10.853698174747642,
      "height_km": 448.15575968415953,
      "semi_major_axis_km": 6826.345725515391,
      "eccentricity": 0.0001738,
      "inclination_deg": 53.0534,
      "raan_deg": 356.7717,
      "arg_perigee_deg": 97.8476,
      "mean_anomaly_deg": 280.3589,
      "mean_motion_rev_day": 15.39289626
    },
    {
      "epoch": "2026-04-11T20:00:01.000224Z",
      "apogee_km": 441.14112487298735,
      "perigee_km": 439.59196086804786,
      "latitude_deg": -30.080081670078588,
      "longitude_deg": 56.08147881513196,
      "height_km": 450.1512754830916,
      "semi_major_axis_km": 6818.503542870518,
      "eccentricity": 0.0001136,
      "inclination_deg": 53.0536,
      "raan_deg": 350.4617,
      "arg_perigee_deg": 75.0593,
      "mean_anomaly_deg": 143.4853,
      "mean_motion_rev_day": 15.4194597
    },
    {
      "epoch": "2026-04-13T06:00:02.000160Z",
      "apogee_km": 433.06241910724384,
      "perigee_km": 431.106932055317,
      "latitude_deg": 3.8679022954710183,
      "longitude_deg": -130.6198019664678,
      "height_km": 432.34538209627584,
      "semi_major_axis_km": 6810.22167558128,
      "eccentricity": 0.00014357,
      "inclination_deg": 53.0536,
      "raan_deg": 343.7305,
      "arg_perigee_deg": 97.7134,
      "mean_anomaly_deg": 77.3583,
      "mean_motion_rev_day": 15.44759551
    },
    {
      "epoch": "2026-04-14T20:00:01.999008Z",
      "apogee_km": 428.22009837789665,
      "perigee_km": 426.7895524661926,
      "latitude_deg": -10.350954505832977,
      "longitude_deg": -174.67420872661825,
      "height_km": 430.46473985464104,
      "semi_major_axis_km": 6805.641825422044,
      "eccentricity": 0.0001051,
      "inclination_deg": 53.0534,
      "raan_deg": 336.1897,
      "arg_perigee_deg": 89.1082,
      "mean_anomaly_deg": 258.088,
      "mean_motion_rev_day": 15.4631913
    },
    {
      "epoch": "2026-04-15T20:00:01.999008Z",
      "apogee_km": 426.7051145571795,
      "perigee_km": 424.73743874357115,
      "latitude_deg": 17.743756127354782,
      "longitude_deg": -6.427027789515559,
      "height_km": 425.52466644031466,
      "semi_major_axis_km": 6803.858276650375,
      "eccentricity": 0.0001446,
      "inclination_deg": 53.0528,
      "raan_deg": 331.4176,
      "arg_perigee_deg": 98.1769,
      "mean_anomaly_deg": 59.4308,
      "mean_motion_rev_day": 15.46927193
    },
    {
      "epoch": "2026-04-16T20:00:01.999008Z",
      "apogee_km": 424.093369163862,
      "perigee_km": 422.79970797482565,
      "latitude_deg": -23.52608868585043,
      "longitude_deg": 162.6539591952815,
      "height_km": 430.3991583972003,
      "semi_major_axis_km": 6801.583538569344,
      "eccentricity": 9.51e-05,
      "inclination_deg": 53.0528,
      "raan_deg": 326.6404,
      "arg_perigee_deg": 79.5,
      "mean_anomaly_deg": 250.8027,
      "mean_motion_rev_day": 15.47703295
    },
    {
      "epoch": "2026-04-18T00:00:04.000320Z",
      "apogee_km": 421.75312336202114,
      "perigee_km": 420.2395003041411,
      "latitude_deg": -2.5033588058207163,
      "longitude_deg": 113.04066206476965,
      "height_km": 422.35701528170694,
      "semi_major_axis_km": 6799.13331183308,
      "eccentricity": 0.00011131,
      "inclination_deg": 53.0529,
      "raan_deg": 321.0565,
      "arg_perigee_deg": 95.0803,
      "mean_anomaly_deg": 261.9193,
      "mean_motion_rev_day": 15.48539997
    },
    {
      "epoch": "2026-04-18T20:00:01.000224Z",
      "apogee_km": 418.7123324838258,
      "perigee_km": 416.84481488417714,
      "latitude_deg": -26.213554526761516,
      "longitude_deg": 148.50539562712123,
      "height_km": 425.9182888736894,
      "semi_major_axis_km": 6795.915573684001,
      "eccentricity": 0.0001374,
      "inclination_deg": 53.0538,
      "raan_deg": 317.0628,
      "arg_perigee_deg": 84.534,
      "mean_anomaly_deg": 242.198,
      "mean_motion_rev_day": 15.49639934
    },
    {
      "epoch": "2026-04-19T20:00:01.999008Z",
      "apogee_km": 412.4055968155435,
      "perigee_km": 411.11008487990966,
      "latitude_deg": 21.468293445859363,
      "longitude_deg": -32.785120698607194,
      "height_km": 412.0966113990317,
      "semi_major_axis_km": 6789.894840847726,
      "eccentricity": 9.54e-05,
      "inclination_deg": 53.0532,
      "raan_deg": 312.2609,
      "arg_perigee_deg": 85.6361,
      "mean_anomaly_deg": 67.1663,
      "mean_motion_rev_day": 15.51701535
    },
    {
      "epoch": "2026-04-20T14:00:03.000384Z",
      "apogee_km": 408.0090547909622,
      "perigee_km": 406.62821456930396,
      "latitude_deg": 21.410146961929886,
      "longitude_deg": -92.98622935131623,
      "height_km": 407.7830553250001,
      "semi_major_axis_km": 6785.455634680133,
      "eccentricity": 0.00010175,
      "inclination_deg": 53.0536,
      "raan_deg": 308.6453,
      "arg_perigee_deg": 107.0589,
      "mean_anomaly_deg": 280.0642,
      "mean_motion_rev_day": 15.53224524
    },
    {
      "epoch": "2026-04-21T22:00:01.998720Z",
      "apogee_km": 400.2125090835243,
      "perigee_km": 398.92881125268923,
      "latitude_deg": -47.251088610378915,
      "longitude_deg": 68.20307455757508,
      "height_km": 416.2555916825322,
      "semi_major_axis_km": 6777.7076601681065,
      "eccentricity": 9.47e-05,
      "inclination_deg": 53.0537,
      "raan_deg": 302.2053,
      "arg_perigee_deg": 84.2012,
      "mean_anomaly_deg": 209.4421,
      "mean_motion_rev_day": 15.55888651
    },
    {
      "epoch": "2026-04-22T20:00:03.000384Z",
      "apogee_km": 394.8124645572243,
      "perigee_km": 393.4498842005405,
      "latitude_deg": 26.975172028077015,
      "longitude_deg": 169.23348161101978,
      "height_km": 394.961981281001,
      "semi_major_axis_km": 6772.268174378883,
      "eccentricity": 0.0001006,
      "inclination_deg": 53.0535,
      "raan_deg": 297.7607,
      "arg_perigee_deg": 88.137,
      "mean_anomaly_deg": 306.3452,
      "mean_motion_rev_day": 15.57763562
    },
    {
      "epoch": "2026-04-23T16:00:01.999584Z",
      "apogee_km": 389.77379020315493,
      "perigee_km": 388.52982717434134,
      "latitude_deg": 26.00098863997986,
      "longitude_deg": -136.61511513754596,
      "height_km": 390.00529881059015,
      "semi_major_axis_km": 6767.288808688748,
      "eccentricity": 9.191e-05,
      "inclination_deg": 53.0533,
      "raan_deg": 293.7094,
      "arg_perigee_deg": 99.5126,
      "mean_anomaly_deg": 293.6624,
      "mean_motion_rev_day": 15.5948318
    },
    {
      "epoch": "2026-04-24T20:00:01.999008Z",
      "apogee_km": 382.88139968334235,
      "perigee_km": 381.86461897793924,
      "latitude_deg": 47.96176284691528,
      "longitude_deg": -100.89355735053492,
      "height_km": 387.3046118310201,
      "semi_major_axis_km": 6760.510009330641,
      "eccentricity": 7.52e-05,
      "inclination_deg": 53.0535,
      "raan_deg": 288.0223,
      "arg_perigee_deg": 73.8831,
      "mean_anomaly_deg": 38.1195,
      "mean_motion_rev_day": 15.61829321
    },
    {
      "epoch": "2026-04-25T20:00:01.000224Z",
      "apogee_km": 377.05915905122674,
      "perigee_km": 375.83657918991594,
      "latitude_deg": -14.669056329712898,
      "longitude_deg": 117.98970592026755,
      "height_km": 380.5448871985382,
      "semi_major_axis_km": 6754.584869120571,
      "eccentricity": 9.05e-05,
      "inclination_deg": 53.0529,
      "raan_deg": 283.1301,
      "arg_perigee_deg": 86.7334,
      "mean_anomaly_deg": 255.0103,
      "mean_motion_rev_day": 15.63884833
    },
    {
      "epoch": "2026-04-26T22:00:00.999936Z",
      "apogee_km": 370.63900776787796,
      "perigee_km": 369.48574049483886,
      "latitude_deg": -24.502720197136668,
      "longitude_deg": 72.96546421121882,
      "height_km": 377.3259007252017,
      "semi_major_axis_km": 6748.199374131358,
      "eccentricity": 8.545e-05,
      "inclination_deg": 53.0528,
      "raan_deg": 277.8141,
      "arg_perigee_deg": 76.7928,
      "mean_anomaly_deg": 252.2189,
      "mean_motion_rev_day": 15.66105101
    },
    {
      "epoch": "2026-04-27T20:00:03.000384Z",
      "apogee_km": 365.19293003295024,
      "perigee_km": 364.0520551268046,
      "latitude_deg": 51.107128430569254,
      "longitude_deg": -130.51646031695216,
      "height_km": 370.18305772936134,
      "semi_major_axis_km": 6742.759492579877,
      "eccentricity": 8.46e-05,
      "inclination_deg": 53.0531,
      "raan_deg": 273.3009,
      "arg_perigee_deg": 71.6801,
      "mean_anomaly_deg": 31.9573,
      "mean_motion_rev_day": 15.68000722
    },
    {
      "epoch": "2026-04-28T20:00:01.000224Z",
      "apogee_km": 359.3874992394922,
      "perigee_km": 358.0980604496299,
      "latitude_deg": -3.696485136144169,
      "longitude_deg": 108.78716520550634,
      "height_km": 360.1238601341878,
      "semi_major_axis_km": 6736.879779844561,
      "eccentricity": 9.57e-05,
      "inclination_deg": 53.0532,
      "raan_deg": 268.3639,
      "arg_perigee_deg": 78.7072,
      "mean_anomaly_deg": 276.8067,
      "mean_motion_rev_day": 15.70053914
    },
    {
      "epoch": "2026-04-29T20:00:01.999008Z",
      "apogee_km": 353.5851051136815,
      "perigee_km": 352.16486158519456,
      "latitude_deg": -50.714633653650594,
      "longitude_deg": -8.291824278785649,
      "height_km": 371.0762174844688,
      "semi_major_axis_km": 6731.011983349437,
      "eccentricity": 0.0001055,
      "inclination_deg": 53.0533,
      "raan_deg": 263.4114,
      "arg_perigee_deg": 64.5271,
      "mean_anomaly_deg": 190.521,
      "mean_motion_rev_day": 15.72107416
    }
  ]
}